SIRIUS-1                
1 26390U 00035A   16073.34984644  .00000030  00000-0  00000-0 0  9990
2 26390  59.6755 233.6547 2579543 266.9851  63.5028  1.00272446 14141
SIRIUS-2                
1 26483U 00051A   16074.40653782  .00000005  00000-0  00000+0 0  9996
2 26483  64.4950 113.7814 2822610 266.4792 206.9990  1.00272268 56863
SIRIUS-3                
1 26626U 00077A   16073.68269703 -.00000144  00000-0  00000+0 0  9993
2 26626  64.4605 353.5894 2660531 268.6169  61.2292  1.00281943 55995
XM-1 (ROLL)             
1 26761U 01018A   16075.36914499  .00000036  00000-0  00000+0 0  9994
2 26761   0.1109  90.8225 0000813 135.4994 324.8601  0.99108315 54467
XM-3 (RHYTHM)           
1 28626U 05008A   16075.36993016 -.00000235  00000-0  00000+0 0  9993
2 28626   0.0419   2.9938 0000182 304.9568 273.5027  1.00271628 40509
XM-4 (BLUES)            
1 29520U 06049A   16075.39491418 -.00000053  00000-0  00000+0 0  9993
2 29520   0.0378 330.9524 0000284 335.2983 254.0679  1.00273308 34432
O3B FM5                 
1 39188U 13031A   16073.35621441 -.00000028  00000-0  00000+0 0  9990
2 39188   0.0556 355.7535 0004862 256.8884 107.3005  5.00115503 49617
O3B FM4                 
1 39189U 13031B   16073.29012050 -.00000028  00000-0  00000-0 0  9995
2 39189   0.0277 355.9677 0005756  42.5521 321.5168  5.00115727 49649
O3B FM2                 
1 39190U 13031C   16073.62289105 -.00000028  00000-0  00000+0 0  9990
2 39190   0.0241 348.2788 0006319  52.8506 318.9136  5.00116051 49627
O3B PFM                 
1 39191U 13031D   16073.64626954 -.00000029  00000-0  00000+0 0  9991
2 39191   0.0471 355.3956 0001835   5.9623 358.6381  5.00115238 49636
O3B FM3                 
1 40079U 14038A   16075.35678560 -.00000032  00000-0  00000+0 0  9990
2 40079   0.0365 354.3751 0002443 304.3435  61.2518  5.00115390 30706
O3B FM7                 
1 40080U 14038B   16073.31342709 -.00000028  00000-0  00000-0 0  9995
2 40080   0.0346 356.0115 0002472 341.8748  22.0986  5.00115355 30508
O3B FM6                 
1 40081U 14038C   16073.33535275 -.00000028  00000-0  00000+0 0  9999
2 40081   0.0356 354.9172 0002384 331.2320  33.8311  5.00115635 30627
O3B FM8                 
1 40082U 14038D   16073.38011950 -.00000028  00000-0  00000-0 0  9995
2 40082   0.0326 356.4554 0001567  14.2662 349.2772  5.00115291 30594
O3B FM10                
1 40348U 14083A   16075.40139844 -.00000032  00000-0  00000+0 0  9992
2 40348   0.0426 354.1874 0003625 353.0196  12.7788  5.00115151 22666
O3B FM11                
1 40349U 14083B   16075.02359724 -.00000031  00000-0  00000+0 0  9991
2 40349   0.0446 355.8496 0003312 359.7256   4.4168  5.00115317 22642
O3B FM12                
1 40350U 14083C   16075.29031090 -.00000032  00000-0  00000+0 0  9996
2 40350   0.0436 356.2694 0002771   2.1614   1.5633  5.00115689 22651
O3B FM9                 
1 40351U 14083D   16074.06863944 -.00000029  00000-0  00000+0 0  9998
2 40351   0.0453 354.3436 0003296 354.1848  11.4593  5.00115349 22597
